OBJECT_NAME,OBJECT_ID,EPOCH,MEAN_MOTION,ECCENTRICITY,INCLINATION,RA_OF_ASC_NODE,ARG_OF_PERICENTER,MEAN_ANOMALY,EPHEMERIS_TYPE,CLASSIFICATION_TYPE,NORAD_CAT_ID,ELEMENT_SET_NO,REV_AT_EPOCH,BSTAR,MEAN_MOTION_DOT,MEAN_MOTION_DDOT
STARLINK-35911,2026-041M,2026-07-07T02:16:02.208864,15.34368913,.00009906,53.1571,214.2568,95.8031,264.3085,0,U,68051,999,1968,.43574961E-3,.1436E-3,0
STARLINK-35808,2026-041N,2026-07-07T01:39:40.974336,15.34371472,.00013342,53.1579,214.1091,87.7179,272.3977,0,U,68052,999,1968,.47660854E-3,.15746E-3,0
STARLINK-36919,2026-041P,2026-07-07T02:19:03.930528,15.34369286,.00007126,53.1569,214.2670,111.9190,248.1888,0,U,68053,999,1968,.44778333E-3,.14768E-3,0
STARLINK-36924,2026-041Q,2026-07-07T10:43:36.372000,15.34375066,.0001007,53.1574,210.7981,87.2248,272.8869,0,U,68054,999,1976,.37503119E-3,.12306E-3,0
STARLINK-35998,2026-041R,2026-07-07T01:57:51.673248,15.34371028,.0001287,53.1574,214.1853,53.8514,306.2608,0,U,68055,999,1968,.56923787E-3,.18887E-3,0
STARLINK-36845,2026-041S,2026-07-07T01:17:47.488704,15.34369391,.000127,53.1581,212.5871,85.9036,274.2111,0,U,68056,999,1970,.47591948E-3,.15722E-3,0
STARLINK-36954,2026-041T,2026-07-07T10:22:20.028864,15.34361815,.00009295,53.1564,210.6851,88.7977,271.3132,0,U,68057,999,1976,.25814865E-3,.8345E-4,0
STARLINK-36899,2026-041U,2026-07-07T10:44:17.075904,15.34377421,.00011852,53.1580,212.2149,96.1456,263.9682,0,U,68058,999,1974,.4090337E-3,.13459E-3,0
STARLINK-36917,2026-041V,2026-07-07T10:52:41.548224,15.34383785,.000133,53.1583,210.8161,67.2829,292.8314,0,U,68059,999,1976,.47258022E-3,.15616E-3,0
STARLINK-36959,2026-041W,2026-07-07T00:47:29.649984,15.34368152,.00011601,53.1559,212.4633,108.4490,251.6639,0,U,68060,999,1970,.46499891E-3,.15351E-3,0
STARLINK-36915,2026-041X,2026-07-07T01:50:59.408736,15.34366626,.00010074,53.1571,212.0153,82.0487,278.0630,0,U,68061,999,1971,.42362952E-3,.13948E-3,0
STARLINK-36952,2026-041Y,2026-07-07T10:34:29.617248,15.34420066,.00013466,53.1574,210.7472,63.9887,296.1254,0,U,68062,999,1976,.36379892E-3,.11943E-3,0
STARLINK-37000,2026-041Z,2026-07-07T01:35:58.262784,15.34372671,.000132,53.1582,212.6776,76.8328,283.2822,0,U,68063,999,1970,.46530482E-3,.15364E-3,0
STARLINK-36996,2026-041AA,2026-07-07T11:07:42.638016,15.34408083,.00016634,53.1591,210.1639,90.9922,269.1271,0,U,68064,999,1977,.78278982E-3,.26171E-3,0
STARLINK-36836,2026-041AB,2026-07-07T02:25:07.574304,15.34379649,.00014047,53.1572,214.2894,111.3941,248.7211,0,U,68065,999,1968,.78995043E-3,.2639E-3,0
STARLINK-36976,2026-041AC,2026-07-07T11:19:49.803744,15.34416302,.00010949,53.1573,210.2232,76.5508,283.5616,0,U,68066,999,1977,.73959031E-3,.24707E-3,0
STARLINK-36929,2026-041AD,2026-07-07T10:37:32.570112,15.34380143,.0001199,53.1575,210.7628,102.7579,257.3557,0,U,68067,999,1976,.43159945E-3,.14225E-3,0
STARLINK-36990,2026-041AE,2026-07-07T10:53:22.080192,15.34386796,.00009451,53.1577,212.2305,97.7140,262.3970,0,U,68068,999,1974,.41885704E-3,.13796E-3,0
STARLINK-36766,2026-042A,2026-07-07T17:00:54.165600,15.34401811,.0000733,53.1593,339.6248,90.2096,269.8990,0,U,68069,999,2070,.42109E-3,.13878E-3,0
STARLINK-36823,2026-042B,2026-07-07T16:20:42.349344,15.34422417,.0001446,53.1597,337.2728,37.6962,322.4142,0,U,68070,999,2073,.54888E-3,.18227E-3,0
STARLINK-36970,2026-042C,2026-07-07T16:42:44.895744,15.34381639,.0001154,53.1598,339.5445,113.6792,246.4331,0,U,68071,999,2070,.1009E-2,.33849E-3,0
STARLINK-36972,2026-042D,2026-07-07T11:12:51.930144,15.34405944,.00012373,53.1603,340.2374,25.4067,334.6997,0,U,68072,999,2067,.50169932E-3,.16615E-3,0
STARLINK-37074,2026-042E,2026-07-07T16:09:23.520096,15.34415347,.000056,53.1606,339.3884,89.2710,270.8356,0,U,68073,999,2070,.4435E-3,.14645E-3,0
STARLINK-37045,2026-042F,2026-07-07T16:48:47.145024,15.34395620,.0000727,53.1595,339.5824,108.4293,251.6789,0,U,68074,999,2070,.3908E-3,.12848E-3,0
STARLINK-37026,2026-042G,2026-07-07T16:57:52.685856,15.34431285,.0001004,53.1591,339.6149,48.8585,311.2504,0,U,68075,999,2070,.65527E-3,.2185E-3,0
STARLINK-37023,2026-042H,2026-07-07T18:10:26.709312,15.34418451,.0001069,53.1594,339.2157,34.0278,326.0793,0,U,68076,999,2071,.50756E-3,.16821E-3,0
STARLINK-37036,2026-042J,2026-07-07T17:09:09.914112,15.34389301,.0001573,53.1602,337.5053,189.8538,170.2434,0,U,68077,999,2073,.76411E-3,.2552E-3,0
STARLINK-36973,2026-042K,2026-07-07T17:40:09.954912,15.34414606,.0000831,53.1607,339.0711,105.4141,254.6953,0,U,68078,999,2071,.50685E-3,.16795E-3,0
STARLINK-37063,2026-042L,2026-07-07T18:01:22.334016,15.34421838,.0001382,53.1601,339.1663,35.4474,324.6620,0,U,68079,999,2071,.45764E-3,.15128E-3,0
STARLINK-37051,2026-042M,2026-07-07T10:41:52.864800,15.34406801,.00005498,53.1587,338.6571,85.8014,274.3051,0,U,68080,999,2069,.52798302E-3,.17508E-3,0
