STARLINK-35911          
1 68051U 26041M   26188.09447001  .00014360  00000+0  43575-3 0  9993
2 68051  53.1571 214.2568 0000990  95.8031 264.3085 15.34368913 19681
STARLINK-35808          
1 68052U 26041N   26188.06922424  .00015746  00000+0  47661-3 0  9997
2 68052  53.1579 214.1091 0001334  87.7179 272.3977 15.34371472 19689
STARLINK-36919          
1 68053U 26041P   26188.09657327  .00014768  00000+0  44778-3 0  9997
2 68053  53.1569 214.2670 0000712 111.9190 248.1888 15.34369286 19687
STARLINK-36924          
1 68054U 26041Q   26188.44694875  .00012306  00000+0  37503-3 0  9990
2 68054  53.1574 210.7981 0001007  87.2248 272.8869 15.34375066 19762
STARLINK-35998          
1 68055U 26041R   26188.08184807  .00018887  00000+0  56924-3 0  9998
2 68055  53.1574 214.1853 0001287  53.8514 306.2608 15.34371028 19682
STARLINK-36845          
1 68056U 26041S   26188.05402186  .00015722  00000+0  47592-3 0  9995
2 68056  53.1581 212.5871 0001270  85.9036 274.2111 15.34369391 19706
STARLINK-36954          
1 68057U 26041T   26188.43217626  .00008345  00000+0  25815-3 0  9998
2 68057  53.1564 210.6851 0000929  88.7977 271.3132 15.34361815 19760
STARLINK-36899          
1 68058U 26041U   26188.44741986  .00013459  00000+0  40903-3 0  9998
2 68058  53.1580 212.2149 0001185  96.1456 263.9682 15.34377421 19742
STARLINK-36917          
1 68059U 26041V   26188.45325866  .00015616  00000+0  47258-3 0  9992
2 68059  53.1583 210.8161 0001330  67.2829 292.8314 15.34383785 19764
STARLINK-36959          
1 68060U 26041W   26188.03298206  .00015351  00000+0  46500-3 0  9990
2 68060  53.1559 212.4633 0001160 108.4490 251.6639 15.34368152 19702
STARLINK-36915          
1 68061U 26041X   26188.07707649  .00013948  00000+0  42363-3 0  9994
2 68061  53.1571 212.0153 0001007  82.0487 278.0630 15.34366626 19712
STARLINK-36952          
1 68062U 26041Y   26188.44062057  .00011943  00000+0  36380-3 0  9998
2 68062  53.1574 210.7472 0001346  63.9887 296.1254 15.34420066 19760
STARLINK-37000          
1 68063U 26041Z   26188.06664656  .00015364  00000+0  46530-3 0  9999
2 68063  53.1582 212.6776 0001320  76.8328 283.2822 15.34372671 19703
STARLINK-36996          
1 68064U 26041AA  26188.46368794  .00026171  00000+0  78279-3 0  9991
2 68064  53.1591 210.1639 0001663  90.9922 269.1271 15.34408083 19777
STARLINK-36836          
1 68065U 26041AB  26188.10078211  .00026390  00000+0  78995-3 0  9993
2 68065  53.1572 214.2894 0001404 111.3941 248.7211 15.34379649 19689
STARLINK-36976          
1 68066U 26041AC  26188.47210421  .00024707  00000+0  73959-3 0  9990
2 68066  53.1573 210.2232 0001094  76.5508 283.5616 15.34416302 19773
STARLINK-36929          
1 68067U 26041AD  26188.44273808  .00014225  00000+0  43160-3 0  9991
2 68067  53.1575 210.7628 0001199 102.7579 257.3557 15.34380143 19761
STARLINK-36990          
1 68068U 26041AE  26188.45372778  .00013796  00000+0  41886-3 0  9994
2 68068  53.1577 212.2305 0000945  97.7140 262.3970 15.34386796 19741
STARLINK-36766          
1 68069U 26042A   26188.70896025  .00013878  00000+0  42109-3 0  9990
2 68069  53.1593 339.6248 0000733  90.2096 269.8990 15.34401811 20701
STARLINK-36823          
1 68070U 26042B   26188.68104571  .00018227  00000+0  54888-3 0  9997
2 68070  53.1597 337.2728 0001446  37.6962 322.4142 15.34422417 20736
STARLINK-36970          
1 68071U 26042C   26188.69635296  .00033849  00000+0  10090-2 0  9995
2 68071  53.1598 339.5445 0001154 113.6792 246.4331 15.34381639 20703
STARLINK-36972          
1 68072U 26042D   26188.46726771  .00016615  00000+0  50170-3 0  9996
2 68072  53.1603 340.2374 0001237  25.4067 334.6997 15.34405944 20678
STARLINK-37074          
1 68073U 26042E   26188.67318889  .00014645  00000+0  44350-3 0  9991
2 68073  53.1606 339.3884 0000560  89.2710 270.8356 15.34415347 20700
STARLINK-37045          
1 68074U 26042F   26188.70054566  .00012848  00000+0  39080-3 0  9992
2 68074  53.1595 339.5824 0000727 108.4293 251.6789 15.34395620 20707
STARLINK-37026          
1 68075U 26042G   26188.70685979  .00021850  00000+0  65527-3 0  9999
2 68075  53.1591 339.6149 0001004  48.8585 311.2504 15.34431285 20701
STARLINK-37023          
1 68076U 26042H   26188.75725358  .00016821  00000+0  50756-3 0  9991
2 68076  53.1594 339.2157 0001069  34.0278 326.0793 15.34418451 20712
STARLINK-37036          
1 68077U 26042J   26188.71469808  .00025520  00000+0  76411-3 0  9995
2 68077  53.1602 337.5053 0001573 189.8538 170.2434 15.34389301 20731
STARLINK-36973          
1 68078U 26042K   26188.73622633  .00016795  00000+0  50685-3 0  9994
2 68078  53.1607 339.0711 0000831 105.4141 254.6953 15.34414606 20713
STARLINK-37063          
1 68079U 26042L   26188.75095294  .00015128  00000+0  45764-3 0  9995
2 68079  53.1601 339.1663 0001382  35.4474 324.6620 15.34421838 20712
STARLINK-37051          
1 68080U 26042M   26188.44575075  .00017508  00000+0  52798-3 0  9992
2 68080  53.1587 338.6571 0000549  85.8014 274.3051 15.34406801 20691
